{"fetched_at":"2026-03-30T06:02:59Z","count":15439,"tles":[{"name":"STARLINK-11613 [DTC]","line1":"1 63136U 25043E   26087.54360244  .00283898  00000+0  21305-2 0  9994","line2":"2 63136  43.0028 137.4049 0002485 267.5928  92.4655 15.70959576 62434","category":"Starlink"}]}